start=new Date('2022-09-01T00:00:00.000Z').valueOf();
sats=[{"RA_OF_ASC_NODE":"91.1690","FILE":"3552761","MEAN_ELEMENT_THEORY":"SGP4","GP_ID":"211425258","TLE_LINE1":"1 52119U 22029AH  22243.91667824 -.00027056  00000-0 -16878-2 0  9993","EPHEMERIS_TYPE":"0","RCS_SIZE":"LARGE","EPOCH":"2022-08-31T22:00:00.999936","REF_FRAME":"TEME","MEAN_MOTION_DDOT":"0.0000000000000","CENTER_NAME":"EARTH","NORAD_CAT_ID":"52119","MEAN_MOTION":"15.08849381","INCLINATION":"53.2175","LAUNCH_DATE":"2022-03-19","TLE_LINE2":"2 52119  53.2175  91.1690 0001817  62.6175 212.4815 15.08849381  1307","BSTAR":"-0.00168780000000","COUNTRY_CODE":"US","MEAN_MOTION_DOT":"-0.00027056","TIME_SYSTEM":"UTC","OBJECT_NAME":"STARLINK-3558","PERIAPSIS":"538.460","DECAY_DATE":null,"REV_AT_EPOCH":"130","ECCENTRICITY":"0.00018170","ELEMENT_SET_NO":"999","MEAN_ANOMALY":"212.4815","CLASSIFICATION_TYPE":"U","SITE":"AFETR","OBJECT_TYPE":"PAYLOAD","PERIOD":"95.437","OBJECT_ID":"2022-029AH","ARG_OF_PERICENTER":"62.6175","SEMIMAJOR_AXIS":"6917.852","APOAPSIS":"540.974"},{"OBJECT_ID":"2022-029AJ","ARG_OF_PERICENTER":"59.9566","OBJECT_TYPE":"PAYLOAD","PERIOD":"95.438","APOAPSIS":"541.002","SEMIMAJOR_AXIS":"6917.902","TIME_SYSTEM":"UTC","OBJECT_NAME":"STARLINK-3534","PERIAPSIS":"538.531","DECAY_DATE":null,"COUNTRY_CODE":"US","MEAN_MOTION_DOT":"0.00010384","SITE":"AFETR","CLASSIFICATION_TYPE":"U","ELEMENT_SET_NO":"999","ECCENTRICITY":"0.00017860","REV_AT_EPOCH":"2668","MEAN_ANOMALY":"155.0795","NORAD_CAT_ID":"52120","CENTER_NAME":"EARTH","MEAN_MOTION":"15.08833011","TLE_LINE1":"1 52120U 22029AJ  22243.91667824  .00010384  00000-0  66967-3 0  9994","EPHEMERIS_TYPE":"0","RCS_SIZE":"LARGE","EPOCH":"2022-08-31T22:00:00.999936","MEAN_MOTION_DDOT":"0.0000000000000","REF_FRAME":"TEME","BSTAR":"0.00066967000000","LAUNCH_DATE":"2022-03-19","INCLINATION":"53.2170","TLE_LINE2":"2 52120  53.2170  91.1680 0001786  59.9566 155.0795 15.08833011 26681","FILE":"3552647","RA_OF_ASC_NODE":"91.1680","MEAN_ELEMENT_THEORY":"SGP4","GP_ID":"211399689"},{"RA_OF_ASC_NODE":"81.1759","FILE":"3552761","MEAN_ELEMENT_THEORY":"SGP4","GP_ID":"211426760","TLE_LINE1":"1 52121U 22029AK  22243.91667824 -.00010449  00000-0 -63930-3 0  9996","EPHEMERIS_TYPE":"0","RCS_SIZE":"LARGE","EPOCH":"2022-08-31T22:00:00.999936","MEAN_MOTION_DDOT":"0.0000000000000","REF_FRAME":"TEME","CENTER_NAME":"EARTH","NORAD_CAT_ID":"52121","MEAN_MOTION":"15.08840941","LAUNCH_DATE":"2022-03-19","INCLINATION":"53.2151","TLE_LINE2":"2 52121  53.2151  81.1759 0001937  63.9203 306.1828 15.08840941  1306","BSTAR":"-0.00063930000000","COUNTRY_CODE":"US","MEAN_MOTION_DOT":"-0.00010449","TIME_SYSTEM":"UTC","OBJECT_NAME":"STARLINK-3678","PERIAPSIS":"538.403","DECAY_DATE":null,"REV_AT_EPOCH":"130","ELEMENT_SET_NO":"999","ECCENTRICITY":"0.00019370","MEAN_ANOMALY":"306.1828","CLASSIFICATION_TYPE":"U","SITE":"AFETR","PERIOD":"95.437","OBJECT_TYPE":"PAYLOAD","OBJECT_ID":"2022-029AK","ARG_OF_PERICENTER":"63.9203","SEMIMAJOR_AXIS":"6917.878","APOAPSIS":"541.083"},{"BSTAR":"0.00077067000000","LAUNCH_DATE":"2022-03-19","INCLINATION":"53.2186","TLE_LINE2":"2 52122  53.2186  91.1715 0001783  59.6848 195.3994 15.08821301  1305","NORAD_CAT_ID":"52122","CENTER_NAME":"EARTH","MEAN_MOTION":"15.08821301","EPHEMERIS_TYPE":"0","RCS_SIZE":"LARGE","EPOCH":"2022-08-31T22:00:00.999936","TLE_LINE1":"1 52122U 22029AL  22243.91667824  .00011992  00000-0  77067-3 0  9995","REF_FRAME":"TEME","MEAN_MOTION_DDOT":"0.0000000000000","MEAN_ELEMENT_THEORY":"SGP4","GP_ID":"211425508","FILE":"3552761","RA_OF_ASC_NODE":"91.1715","APOAPSIS":"541.036","SEMIMAJOR_AXIS":"6917.938","OBJECT_ID":"2022-029AL","ARG_OF_PERICENTER":"59.6848","OBJECT_TYPE":"PAYLOAD","PERIOD":"95.439","SITE":"AFETR","CLASSIFICATION_TYPE":"U","ECCENTRICITY":"0.00017830","ELEMENT_SET_NO":"999","REV_AT_EPOCH":"130","MEAN_ANOMALY":"195.3994","TIME_SYSTEM":"UTC","DECAY_DATE":null,"OBJECT_NAME":"STARLINK-3726","PERIAPSIS":"538.569","MEAN_MOTION_DOT":"0.00011992","COUNTRY_CODE":"US"},{"REF_FRAME":"TEME","MEAN_MOTION_DDOT":"0.0000000000000","TLE_LINE1":"1 52123U 22029AM  22243.91667824  .00018427  00000-0  11734-2 0  9994","RCS_SIZE":"LARGE","EPOCH":"2022-08-31T22:00:00.999936","EPHEMERIS_TYPE":"0","MEAN_MOTION":"15.08822807","NORAD_CAT_ID":"52123","CENTER_NAME":"EARTH","TLE_LINE2":"2 52123  53.2161  81.1824 0002289  72.3475 337.7169 15.08822807 26821","LAUNCH_DATE":"2022-03-19","INCLINATION":"53.2161","BSTAR":"0.00117340000000","RA_OF_ASC_NODE":"81.1824","FILE":"3552595","GP_ID":"211398789","MEAN_ELEMENT_THEORY":"SGP4","PERIOD":"95.439","OBJECT_TYPE":"PAYLOAD","OBJECT_ID":"2022-029AM","ARG_OF_PERICENTER":"72.3475","SEMIMAJOR_AXIS":"6917.933","APOAPSIS":"541.381","COUNTRY_CODE":"US","MEAN_MOTION_DOT":"0.00018427","OBJECT_NAME":"STARLINK-3725","PERIAPSIS":"538.214","DECAY_DATE":null,"TIME_SYSTEM":"UTC","MEAN_ANOMALY":"337.7169","ELEMENT_SET_NO":"999","ECCENTRICITY":"0.00022890","REV_AT_EPOCH":"2682","CLASSIFICATION_TYPE":"U","SITE":"AFETR"},{"MEAN_MOTION":"15.08830984","NORAD_CAT_ID":"52124","CENTER_NAME":"EARTH","REF_FRAME":"TEME","MEAN_MOTION_DDOT":"0.0000000000000","TLE_LINE1":"1 52124U 22029AN  22243.91667824  .00012438  00000-0  79838-3 0  9991","EPHEMERIS_TYPE":"0","RCS_SIZE":"LARGE","EPOCH":"2022-08-31T22:00:00.999936","BSTAR":"0.00079838000000","TLE_LINE2":"2 52124  53.2186  91.1722 0001594  68.4415 226.6397 15.08830984  1305","LAUNCH_DATE":"2022-03-19","INCLINATION":"53.2186","FILE":"3552761","RA_OF_ASC_NODE":"91.1722","GP_ID":"211426510","MEAN_ELEMENT_THEORY":"SGP4","OBJECT_ID":"2022-029AN","ARG_OF_PERICENTER":"68.4415","PERIOD":"95.438","OBJECT_TYPE":"PAYLOAD","APOAPSIS":"540.876","SEMIMAJOR_AXIS":"6917.908","PERIAPSIS":"538.670","OBJECT_NAME":"STARLINK-3684","DECAY_DATE":null,"TIME_SYSTEM":"UTC","COUNTRY_CODE":"US","MEAN_MOTION_DOT":"0.00012438","CLASSIFICATION_TYPE":"U","SITE":"AFETR","MEAN_ANOMALY":"226.6397","ELEMENT_SET_NO":"999","ECCENTRICITY":"0.00015940","REV_AT_EPOCH":"130"},{"ECCENTRICITY":"0.00019130","ELEMENT_SET_NO":"999","REV_AT_EPOCH":"2682","MEAN_ANOMALY":"3.1638","CLASSIFICATION_TYPE":"U","SITE":"AFETR","MEAN_MOTION_DOT":"0.00018328","COUNTRY_CODE":"US","TIME_SYSTEM":"UTC","DECAY_DATE":null,"OBJECT_NAME":"STARLINK-3727","PERIAPSIS":"538.482","SEMIMAJOR_AXIS":"6917.941","APOAPSIS":"541.129","PERIOD":"95.439","OBJECT_TYPE":"PAYLOAD","ARG_OF_PERICENTER":"66.9130","OBJECT_ID":"2022-029AP","MEAN_ELEMENT_THEORY":"SGP4","GP_ID":"211400217","RA_OF_ASC_NODE":"81.1758","FILE":"3552672","LAUNCH_DATE":"2022-03-19","INCLINATION":"53.2152","TLE_LINE2":"2 52125  53.2152  81.1758 0001913  66.9130   3.1638 15.08820257 26821","BSTAR":"0.00116730000000","RCS_SIZE":"LARGE","EPOCH":"2022-08-31T22:00:00.999936","EPHEMERIS_TYPE":"0","TLE_LINE1":"1 52125U 22029AP  22243.91667824  .00018328  00000-0  11673-2 0  9998","MEAN_MOTION_DDOT":"0.0000000000000","REF_FRAME":"TEME","NORAD_CAT_ID":"52125","CENTER_NAME":"EARTH","MEAN_MOTION":"15.08820257"},{"FILE":"3552761","RA_OF_ASC_NODE":"81.1754","MEAN_ELEMENT_THEORY":"SGP4","GP_ID":"211425009","NORAD_CAT_ID":"52126","CENTER_NAME":"EARTH","MEAN_MOTION":"15.08821242","RCS_SIZE":"LARGE","EPOCH":"2022-08-31T22:00:00.999936","EPHEMERIS_TYPE":"0","TLE_LINE1":"1 52126U 22029AQ  22243.91667824  .00018441  00000-0  11743-2 0  9993","REF_FRAME":"TEME","MEAN_MOTION_DDOT":"0.0000000000000","BSTAR":"0.00117430000000","INCLINATION":"53.2150","LAUNCH_DATE":"2022-03-19","TLE_LINE2":"2 52126  53.2150  81.1754 0001991  69.4128 320.6412 15.08821242  1305","TIME_SYSTEM":"UTC","DECAY_DATE":null,"OBJECT_NAME":"STARLINK-3732","PERIAPSIS":"538.425","MEAN_MOTION_DOT":"0.00018441","COUNTRY_CODE":"US","CLASSIFICATION_TYPE":"U","SITE":"AFETR","ECCENTRICITY":"0.00019910","REV_AT_EPOCH":"130","ELEMENT_SET_NO":"999","MEAN_ANOMALY":"320.6412","ARG_OF_PERICENTER":"69.4128","OBJECT_ID":"2022-029AQ","OBJECT_TYPE":"PAYLOAD","PERIOD":"95.439","APOAPSIS":"541.180","SEMIMAJOR_AXIS":"6917.938"},{"SITE":"AFETR","CLASSIFICATION_TYPE":"U","MEAN_ANOMALY":"28.8013","ECCENTRICITY":"0.00021560","REV_AT_EPOCH":"130","ELEMENT_SET_NO":"999","PERIAPSIS":"538.292","OBJECT_NAME":"STARLINK-3715","DECAY_DATE":null,"TIME_SYSTEM":"UTC","COUNTRY_CODE":"US","MEAN_MOTION_DOT":"0.00019911","APOAPSIS":"541.275","SEMIMAJOR_AXIS":"6917.919","OBJECT_ID":"2022-029AR","ARG_OF_PERICENTER":"61.2981","OBJECT_TYPE":"PAYLOAD","PERIOD":"95.438","GP_ID":"211425259","MEAN_ELEMENT_THEORY":"SGP4","FILE":"3552761","RA_OF_ASC_NODE":"81.1726","BSTAR":"0.00126600000000","TLE_LINE2":"2 52127  53.2146  81.1726 0002156  61.2981  28.8013 15.08827376  1309","LAUNCH_DATE":"2022-03-19","INCLINATION":"53.2146","MEAN_MOTION":"15.08827376","NORAD_CAT_ID":"52127","CENTER_NAME":"EARTH","REF_FRAME":"TEME","MEAN_MOTION_DDOT":"0.0000000000000","TLE_LINE1":"1 52127U 22029AR  22243.91667824  .00019911  00000-0  12660-2 0  9996","RCS_SIZE":"LARGE","EPOCH":"2022-08-31T22:00:00.999936","EPHEMERIS_TYPE":"0"},{"MEAN_ELEMENT_THEORY":"SGP4","GP_ID":"211426011","RA_OF_ASC_NODE":"81.1706","FILE":"3552761","LAUNCH_DATE":"2022-03-19","INCLINATION":"53.2151","TLE_LINE2":"2 52129  53.2151  81.1706 0001871  69.6014  60.4724 15.08824569  1309","BSTAR":"0.00139440000000","TLE_LINE1":"1 52129U 22029AT  22243.91667824  .00021964  00000-0  13944-2 0  9995","EPOCH":"2022-08-31T22:00:00.999936","RCS_SIZE":"LARGE","EPHEMERIS_TYPE":"0","MEAN_MOTION_DDOT":"0.0000000000000","REF_FRAME":"TEME","NORAD_CAT_ID":"52129","CENTER_NAME":"EARTH","MEAN_MOTION":"15.08824569","ECCENTRICITY":"0.00018710","ELEMENT_SET_NO":"999","REV_AT_EPOCH":"130","MEAN_ANOMALY":"60.4724","SITE":"AFETR","CLASSIFICATION_TYPE":"U","COUNTRY_CODE":"US","MEAN_MOTION_DOT":"0.00021964","TIME_SYSTEM":"UTC","PERIAPSIS":"538.498","OBJECT_NAME":"STARLINK-3661","DECAY_DATE":null,"SEMIMAJOR_AXIS":"6917.928","APOAPSIS":"541.087","OBJECT_TYPE":"PAYLOAD","PERIOD":"95.439","OBJECT_ID":"2022-029AT","ARG_OF_PERICENTER":"69.6014"}];
